{
  "norad_id": 58867,
  "name": "STARLINK-31198",
  "history": [
    {
      "epoch": "2026-03-28T20:12:19.739232Z",
      "apogee_km": 483.4359075577004,
      "perigee_km": 482.5707177642744,
      "latitude_deg": 1.37936370262628e-05,
      "longitude_deg": 11.21912229845702,
      "height_km": 482.5463432325848,
      "semi_major_axis_km": 6861.140312660987,
      "eccentricity": 6.305e-05,
      "inclination_deg": 43.0046,
      "raan_deg": 140.5579,
      "arg_perigee_deg": 302.6586,
      "mean_anomaly_deg": 57.4205,
      "mean_motion_rev_day": 15.2759529
    },
    {
      "epoch": "2026-03-29T04:03:06.897312Z",
      "apogee_km": 483.5882408048428,
      "perigee_km": 482.4204745457673,
      "latitude_deg": 4.366881121994504e-05,
      "longitude_deg": -108.64177935289378,
      "height_km": 482.4616225119648,
      "semi_major_axis_km": 6861.141357675305,
      "eccentricity": 8.51e-05,
      "inclination_deg": 42.9959,
      "raan_deg": 138.7157,
      "arg_perigee_deg": 57.1223,
      "mean_anomaly_deg": 302.9711,
      "mean_motion_rev_day": 15.27594941
    }
  ]
}